[{"OBJECT_NAME":"ONEWEB-0697","OBJECT_ID":"2024-188K","EPOCH":"2026-06-12T02:42:25.754976","MEAN_MOTION":13.11419919,"ECCENTRICITY":0.0001577,"INCLINATION":87.8891,"RA_OF_ASC_NODE":22.0773,"ARG_OF_PERICENTER":110.0705,"MEAN_ANOMALY":250.0593,"EPHEMERIS_TYPE":0,"CLASSIFICATION_TYPE":"U","NORAD_CAT_ID":61603,"ELEMENT_SET_NO":999,"REV_AT_EPOCH":8378,"BSTAR":-0.00030596000000000003,"MEAN_MOTION_DOT":-9.6e-07,"MEAN_MOTION_DDOT":0.0},{"OBJECT_NAME":"ONEWEB-0698","OBJECT_ID":"2024-188L","EPOCH":"2026-06-12T02:10:40.923552","MEAN_MOTION":13.11414892,"ECCENTRICITY":7.12e-05,"INCLINATION":87.8887,"RA_OF_ASC_NODE":22.0957,"ARG_OF_PERICENTER":106.7668,"MEAN_ANOMALY":253.3538,"EPHEMERIS_TYPE":0,"CLASSIFICATION_TYPE":"U","NORAD_CAT_ID":61604,"ELEMENT_SET_NO":999,"REV_AT_EPOCH":8380,"BSTAR":-0.0011338,"MEAN_MOTION_DOT":-3.89e-06,"MEAN_MOTION_DDOT":0.0},{"OBJECT_NAME":"ONEWEB-0699","OBJECT_ID":"2024-188M","EPOCH":"2026-06-12T04:13:20.271648","MEAN_MOTION":13.10373803,"ECCENTRICITY":0.0001467,"INCLINATION":87.8834,"RA_OF_ASC_NODE":37.2642,"ARG_OF_PERICENTER":102.3516,"MEAN_ANOMALY":257.7776,"EPHEMERIS_TYPE":0,"CLASSIFICATION_TYPE":"U","NORAD_CAT_ID":61605,"ELEMENT_SET_NO":999,"REV_AT_EPOCH":8265,"BSTAR":0.0018770999999999998,"MEAN_MOTION_DOT":6.68e-06,"MEAN_MOTION_DDOT":0.0},{"OBJECT_NAME":"ONEWEB-0700","OBJECT_ID":"2024-188N","EPOCH":"2026-06-12T04:15:43.595424","MEAN_MOTION":13.10373266,"ECCENTRICITY":0.0001841,"INCLINATION":87.8856,"RA_OF_ASC_NODE":37.172,"ARG_OF_PERICENTER":104.137,"MEAN_ANOMALY":255.9963,"EPHEMERIS_TYPE":0,"CLASSIFICATION_TYPE":"U","NORAD_CAT_ID":61606,"ELEMENT_SET_NO":999,"REV_AT_EPOCH":8264,"BSTAR":0.00196,"MEAN_MOTION_DOT":6.97e-06,"MEAN_MOTION_DDOT":0.0},{"OBJECT_NAME":"ONEWEB-0701","OBJECT_ID":"2024-188P","EPOCH":"2026-06-12T04:39:36.912672","MEAN_MOTION":13.10369866,"ECCENTRICITY":0.0001437,"INCLINATION":87.8836,"RA_OF_ASC_NODE":37.2598,"ARG_OF_PERICENTER":109.4925,"MEAN_ANOMALY":250.6358,"EPHEMERIS_TYPE":0,"CLASSIFICATION_TYPE":"U","NORAD_CAT_ID":61607,"ELEMENT_SET_NO":999,"REV_AT_EPOCH":8265,"BSTAR":0.0005164400000000001,"MEAN_MOTION_DOT":1.93e-06,"MEAN_MOTION_DDOT":0.0},{"OBJECT_NAME":"ONEWEB-0702","OBJECT_ID":"2024-188Q","EPOCH":"2026-06-12T03:16:38.082432","MEAN_MOTION":13.1141824,"ECCENTRICITY":0.0001828,"INCLINATION":87.8907,"RA_OF_ASC_NODE":21.9915,"ARG_OF_PERICENTER":116.9431,"MEAN_ANOMALY":243.1884,"EPHEMERIS_TYPE":0,"CLASSIFICATION_TYPE":"U","NORAD_CAT_ID":61608,"ELEMENT_SET_NO":999,"REV_AT_EPOCH":8382,"BSTAR":0.0016402,"MEAN_MOTION_DOT":5.94e-06,"MEAN_MOTION_DDOT":0.0},{"OBJECT_NAME":"ONEWEB-0704","OBJECT_ID":"2024-188R","EPOCH":"2026-06-12T04:22:53.959872","MEAN_MOTION":13.10372238,"ECCENTRICITY":0.0002042,"INCLINATION":87.8849,"RA_OF_ASC_NODE":37.2511,"ARG_OF_PERICENTER":114.6408,"MEAN_ANOMALY":245.4932,"EPHEMERIS_TYPE":0,"CLASSIFICATION_TYPE":"U","NORAD_CAT_ID":61609,"ELEMENT_SET_NO":999,"REV_AT_EPOCH":8263,"BSTAR":0.0017967,"MEAN_MOTION_DOT":6.4e-06,"MEAN_MOTION_DDOT":0.0},{"OBJECT_NAME":"ONEWEB-0705","OBJECT_ID":"2024-188S","EPOCH":"2026-06-12T04:30:04.449600","MEAN_MOTION":13.1036702,"ECCENTRICITY":0.0002578,"INCLINATION":87.8845,"RA_OF_ASC_NODE":37.2557,"ARG_OF_PERICENTER":101.7282,"MEAN_ANOMALY":258.4134,"EPHEMERIS_TYPE":0,"CLASSIFICATION_TYPE":"U","NORAD_CAT_ID":61610,"ELEMENT_SET_NO":999,"REV_AT_EPOCH":7480,"BSTAR":-0.0012598000000000002,"MEAN_MOTION_DOT":-4.27e-06,"MEAN_MOTION_DDOT":0.0},{"OBJECT_NAME":"ONEWEB-0706","OBJECT_ID":"2024-188T","EPOCH":"2026-06-12T04:08:33.321696","MEAN_MOTION":13.10374818,"ECCENTRICITY":0.0001959,"INCLINATION":87.8841,"RA_OF_ASC_NODE":37.2643,"ARG_OF_PERICENTER":100.3013,"MEAN_ANOMALY":259.8336,"EPHEMERIS_TYPE":0,"CLASSIFICATION_TYPE":"U","NORAD_CAT_ID":61611,"ELEMENT_SET_NO":999,"REV_AT_EPOCH":8272,"BSTAR":0.0017136000000000002,"MEAN_MOTION_DOT":6.11e-06,"MEAN_MOTION_DDOT":0.0},{"OBJECT_NAME":"ONEWEB-0707","OBJECT_ID":"2024-188U","EPOCH":"2026-06-12T04:18:07.045344","MEAN_MOTION":13.10372859,"ECCENTRICITY":0.0001885,"INCLINATION":87.8846,"RA_OF_ASC_NODE":37.2563,"ARG_OF_PERICENTER":101.306,"MEAN_ANOMALY":258.828,"EPHEMERIS_TYPE":0,"CLASSIFICATION_TYPE":"U","NORAD_CAT_ID":61612,"ELEMENT_SET_NO":999,"REV_AT_EPOCH":8266,"BSTAR":0.0019385,"MEAN_MOTION_DOT":6.89e-06,"MEAN_MOTION_DDOT":0.0},{"OBJECT_NAME":"ONEWEB-0708","OBJECT_ID":"2024-188V","EPOCH":"2026-06-12T04:44:23.578368","MEAN_MOTION":13.10369709,"ECCENTRICITY":0.0002335,"INCLINATION":87.8832,"RA_OF_ASC_NODE":37.2716,"ARG_OF_PERICENTER":85.6767,"MEAN_ANOMALY":274.4628,"EPHEMERIS_TYPE":0,"CLASSIFICATION_TYPE":"U","NORAD_CAT_ID":61613,"ELEMENT_SET_NO":999,"REV_AT_EPOCH":8264,"BSTAR":2.1917e-05,"MEAN_MOTION_DOT":2e-07,"MEAN_MOTION_DDOT":0.0}]