ONEWEB-0697             
1 61603U 24188K   26163.11279809 -.00000096  00000+0 -30596-3 0  9996
2 61603  87.8891  22.0773 0001577 110.0705 250.0593 13.11419919 83783
ONEWEB-0698             
1 61604U 24188L   26163.09075143 -.00000389  00000+0 -11338-2 0  9996
2 61604  87.8887  22.0957 0000712 106.7668 253.3538 13.11414892 83806
ONEWEB-0699             
1 61605U 24188M   26163.17592907  .00000668  00000+0  18771-2 0  9994
2 61605  87.8834  37.2642 0001467 102.3516 257.7776 13.10373803 82659
ONEWEB-0700             
1 61606U 24188N   26163.17758791  .00000697  00000+0  19600-2 0  9994
2 61606  87.8856  37.1720 0001841 104.1370 255.9963 13.10373266 82644
ONEWEB-0701             
1 61607U 24188P   26163.19417723  .00000193  00000+0  51644-3 0  9990
2 61607  87.8836  37.2598 0001437 109.4925 250.6358 13.10369866 82654
ONEWEB-0702             
1 61608U 24188Q   26163.13655188  .00000594  00000+0  16402-2 0  9991
2 61608  87.8907  21.9915 0001828 116.9431 243.1884 13.11418240 83829
ONEWEB-0704             
1 61609U 24188R   26163.18256898  .00000640  00000+0  17967-2 0  9991
2 61609  87.8849  37.2511 0002042 114.6408 245.4932 13.10372238 82637
ONEWEB-0705             
1 61610U 24188S   26163.18755150 -.00000427  00000+0 -12598-2 0  9998
2 61610  87.8845  37.2557 0002578 101.7282 258.4134 13.10367020 74807
ONEWEB-0706             
1 61611U 24188T   26163.17260789  .00000611  00000+0  17136-2 0  9993
2 61611  87.8841  37.2643 0001959 100.3013 259.8336 13.10374818 82721
ONEWEB-0707             
1 61612U 24188U   26163.17924821  .00000689  00000+0  19385-2 0  9991
2 61612  87.8846  37.2563 0001885 101.3060 258.8280 13.10372859 82662
ONEWEB-0708             
1 61613U 24188V   26163.19749512  .00000020  00000+0  21917-4 0  9991
2 61613  87.8832  37.2716 0002335  85.6767 274.4628 13.10369709 82645
